STARLINK - 2019-029S               
1 44251U 19029S   19146.90836450  .00002308  00000-0  61169-4 0  9993
2 44251  53.0005 161.9960 0005684 275.6910 210.4457 15.42852276   461